{"fetched_at":"2026-03-30T09:12:31Z","count":15922,"tles":[{"name":"STARLINK-34893","line1":"1 65752U 25216U   26087.70863725  .00024380  00000+0  83226-3 0  9992","line2":"2 65752  53.1584 244.6800 0000846  82.5269 277.5828 15.30211713 29427","category":"Starlink"}]}